{"type": "FeatureCollection", "features": [ {"type": "Feature", "properties": {"norad_id": 33723, "name": "FENGYUN 1C DEB", "group": "fengyun-1c-debris", "lat": -60.9423181508943, "lon": 85.79590636276458, "alt_km": 792.4244604477353, "timestamp": "2025-12-14T07:33:19.764960+00:00", "meta": {"OBJECT_NAME": "FENGYUN 1C DEB", "OBJECT_ID": "1999-025DHL", "EPOCH": "2025-12-12T11:59:32.258688", "MEAN_MOTION": 14.13293194, "ECCENTRICITY": 0.00984611, "INCLINATION": 99.1542, "RA_OF_ASC_NODE": 67.0692, "ARG_OF_PERICENTER": 331.2683, "MEAN_ANOMALY": 96.9222, "EPHEMERIS_TYPE": 0, "CLASSIFICATION_TYPE": "U", "NORAD_CAT_ID": 33723, "ELEMENT_SET_NO": 999, "REV_AT_EPOCH": 63620, "BSTAR": 0.0028481421, "MEAN_MOTION_DOT": 5.549e-05, "MEAN_MOTION_DDOT": 0}, "tle": {"line1": "1 33723U 99025DHL 25346.49967892  .00005549  00000+0  28481-2 0  9994", "line2": "2 33723  99.1542  67.0692 0098461 331.2683  96.9222 14.13293194636208"}}, "geometry": {"type": "Point", "coordinates": [85.79590636276458, -60.9423181508943]}}, {"type": "Feature", "properties": {"norad_id": 33724, "name": "FENGYUN 1C DEB", "group": "fengyun-1c-debris", "lat": 65.91494987339446, "lon": -21.21965432643497, "alt_km": 826.6553222749817, "timestamp": "2025-12-14T07:33:19.764970+00:00", "meta": {"OBJECT_NAME": "FENGYUN 1C DEB", "OBJECT_ID": "1999-025DHM", "EPOCH": "2025-12-12T20:17:56.179104", "MEAN_MOTION": 14.19646341, "ECCENTRICITY": 0.00274383, "INCLINATION": 98.6039, "RA_OF_ASC_NODE": 357.1507, "ARG_OF_PERICENTER": 181.2748, "MEAN_ANOMALY": 302.9388, "EPHEMERIS_TYPE": 0, "CLASSIFICATION_TYPE": "U", "NORAD_CAT_ID": 33724, "ELEMENT_SET_NO": 999, "REV_AT_EPOCH": 93963, "BSTAR": 0.00065361765, "MEAN_MOTION_DOT": 1.343e-05, "MEAN_MOTION_DDOT": 0}, "tle": {"line1": "1 33724U 99025DHM 25346.84578911  .00001343  00000+0  65362-3 0  9992", "line2": "2 33724  98.6039 357.1507 0027438 181.2748 302.9388 14.19646341939631"}}, "geometry": {"type": "Point", "coordinates": [-21.21965432643497, 65.91494987339446]}}, {"type": "Feature", "properties": {"norad_id": 33726, "name": "FENGYUN 1C DEB", "group": "fengyun-1c-debris", "lat": 27.49782786864187, "lon": 107.93476714136972, "alt_km": 704.2626475673778, "timestamp": "2025-12-14T07:33:19.764984+00:00", "meta": {"OBJECT_NAME": "FENGYUN 1C DEB", "OBJECT_ID": "1999-025DHP", "EPOCH": "2025-12-13T07:47:11.360256", "MEAN_MOTION": 14.14306927, "ECCENTRICITY": 0.01927508, "INCLINATION": 98.6387, "RA_OF_ASC_NODE": 111.515, "ARG_OF_PERICENTER": 29.4206, "MEAN_ANOMALY": 358.8001, "EPHEMERIS_TYPE": 0, "CLASSIFICATION_TYPE": "U", "NORAD_CAT_ID": 33726, "ELEMENT_SET_NO": 999, "REV_AT_EPOCH": 91940, "BSTAR": 0.00044570328, "MEAN_MOTION_DOT": 9.75e-06, "MEAN_MOTION_DDOT": 0}, "tle": {"line1": "1 33726U 99025DHP 25347.32443704  .00000975  00000+0  44570-3 0  9997", "line2": "2 33726  98.6387 111.5150 0192750  29.4206 358.8001 14.14306927919400"}}, "geometry": {"type": "Point", "coordinates": [107.93476714136972, 27.49782786864187]}}, {"type": "Feature", "properties": {"norad_id": 33728, "name": "FENGYUN 1C DEB", "group": "fengyun-1c-debris", "lat": 53.30261646763363, "lon": 32.169647559685416, "alt_km": 678.1608055791203, "timestamp": "2025-12-14T07:33:19.764995+00:00", "meta": {"OBJECT_NAME": "FENGYUN 1C DEB", "OBJECT_ID": "1999-025DHR", "EPOCH": "2025-12-13T10:23:27.734496", "MEAN_MOTION": 14.92641109, "ECCENTRICITY": 0.01477739, "INCLINATION": 98.9792, "RA_OF_ASC_NODE": 43.4131, "ARG_OF_PERICENTER": 212.8148, "MEAN_ANOMALY": 146.3826, "EPHEMERIS_TYPE": 0, "CLASSIFICATION_TYPE": "U", "NORAD_CAT_ID": 33728, "ELEMENT_SET_NO": 999, "REV_AT_EPOCH": 98310, "BSTAR": 0.00091771888, "MEAN_MOTION_DOT": 0.00011628, "MEAN_MOTION_DDOT": 0}, "tle": {"line1": "1 33728U 99025DHR 25347.43295989  .00011628  00000+0  91772-3 0  9994", "line2": "2 33728  98.9792  43.4131 0147773 212.8148 146.3826 14.92641109983108"}}, "geometry": {"type": "Point", "coordinates": [32.169647559685416, 53.30261646763363]}}, {"type": "Feature", "properties": {"norad_id": 33730, "name": "FENGYUN 1C DEB", "group": "fengyun-1c-debris", "lat": 18.384195345324724, "lon": -130.73623785917107, "alt_km": 707.4328874211205, "timestamp": "2025-12-14T07:33:19.765006+00:00", "meta": {"OBJECT_NAME": "FENGYUN 1C DEB", "OBJECT_ID": "1999-025DHT", "EPOCH": "2025-12-13T09:29:27.938400", "MEAN_MOTION": 14.6348931, "ECCENTRICITY": 0.00395533, "INCLINATION": 99.0574, "RA_OF_ASC_NODE": 45.2157, "ARG_OF_PERICENTER": 9.0495, "MEAN_ANOMALY": 351.1409, "EPHEMERIS_TYPE": 0, "CLASSIFICATION_TYPE": "U", "NORAD_CAT_ID": 33730, "ELEMENT_SET_NO": 999, "REV_AT_EPOCH": 95689, "BSTAR": 0.0027326896, "MEAN_MOTION_DOT": 0.0001429, "MEAN_MOTION_DDOT": 0}, "tle": {"line1": "1 33730U 99025DHT 25347.39546225  .00014290  00000+0  27327-2 0  9996", "line2": "2 33730  99.0574  45.2157 0039553   9.0495 351.1409 14.63489310956897"}}, "geometry": {"type": "Point", "coordinates": [-130.73623785917107, 18.384195345324724]}}, {"type": "Feature", "properties": {"norad_id": 33731, "name": "FENGYUN 1C DEB", "group": "fengyun-1c-debris", "lat": 1.6540810188104993, "lon": 10.29448873210895, "alt_km": 851.5632197964187, "timestamp": "2025-12-14T07:33:19.765016+00:00", "meta": {"OBJECT_NAME": "FENGYUN 1C DEB", "OBJECT_ID": "1999-025DHU", "EPOCH": "2025-12-12T07:21:42.504480", "MEAN_MOTION": 13.95336601, "ECCENTRICITY": 0.01289523, "INCLINATION": 99.445, "RA_OF_ASC_NODE": 8.5135, "ARG_OF_PERICENTER": 57.2943, "MEAN_ANOMALY": 304.0576, "EPHEMERIS_TYPE": 0, "CLASSIFICATION_TYPE": "U", "NORAD_CAT_ID": 33731, "ELEMENT_SET_NO": 999, "REV_AT_EPOCH": 90443, "BSTAR": 0.0016610321, "MEAN_MOTION_DOT": 2.365e-05, "MEAN_MOTION_DDOT": 0}, "tle": {"line1": "1 33731U 99025DHU 25346.30674195  .00002365  00000+0  16610-2 0  9998", "line2": "2 33731  99.4450   8.5135 0128952  57.2943 304.0576 13.95336601904431"}}, "geometry": {"type": "Point", "coordinates": [10.29448873210895, 1.6540810188104993]}}, {"type": "Feature", "properties": {"norad_id": 33733, "name": "FENGYUN 1C DEB", "group": "fengyun-1c-debris", "lat": -2.5388810003954245, "lon": -106.69256329305222, "alt_km": 736.0747011089961, "timestamp": "2025-12-14T07:33:19.765026+00:00", "meta": {"OBJECT_NAME": "FENGYUN 1C DEB", "OBJECT_ID": "1999-025DHW", "EPOCH": "2025-12-08T04:50:49.402752", "MEAN_MOTION": 14.30867233, "ECCENTRICITY": 0.00809024, "INCLINATION": 99.099, "RA_OF_ASC_NODE": 67.3183, "ARG_OF_PERICENTER": 183.3026, "MEAN_ANOMALY": 206.7882, "EPHEMERIS_TYPE": 0, "CLASSIFICATION_TYPE": "U", "NORAD_CAT_ID": 33733, "ELEMENT_SET_NO": 999, "REV_AT_EPOCH": 90383, "BSTAR": 0.0048281586, "MEAN_MOTION_DOT": 0.00013108, "MEAN_MOTION_DDOT": 0}, "tle": {"line1": "1 33733U 99025DHW 25342.20196068  .00013108  00000+0  48282-2 0  9990", "line2": "2 33733  99.0990  67.3183 0080902 183.3026 206.7882 14.30867233903830"}}, "geometry": {"type": "Point", "coordinates": [-106.69256329305222, -2.5388810003954245]}}, {"type": "Feature", "properties": {"norad_id": 33737, "name": "FENGYUN 1C DEB", "group": "fengyun-1c-debris", "lat": -36.76873441586931, "lon": -4.195831314389065, "alt_km": 844.3444496397269, "timestamp": "2025-12-14T07:33:19.765037+00:00", "meta": {"OBJECT_NAME": "FENGYUN 1C DEB", "OBJECT_ID": "1999-025DJA", "EPOCH": "2025-12-13T11:49:27.823296", "MEAN_MOTION": 14.03003696, "ECCENTRICITY": 0.01283923, "INCLINATION": 98.338, "RA_OF_ASC_NODE": 181.3421, "ARG_OF_PERICENTER": 281.0011, "MEAN_ANOMALY": 107.3159, "EPHEMERIS_TYPE": 0, "CLASSIFICATION_TYPE": "U", "NORAD_CAT_ID": 33737, "ELEMENT_SET_NO": 999, "REV_AT_EPOCH": 88751, "BSTAR": 0.0018861544, "MEAN_MOTION_DOT": 3.11e-05, "MEAN_MOTION_DDOT": 0}, "tle": {"line1": "1 33737U 99025DJA 25347.49268314  .00003110  00000+0  18862-2 0  9997", "line2": "2 33737  98.3380 181.3421 0128392 281.0011 107.3159 14.03003696887511"}}, "geometry": {"type": "Point", "coordinates": [-4.195831314389065, -36.76873441586931]}}, {"type": "Feature", "properties": {"norad_id": 33738, "name": "FENGYUN 1C DEB", "group": "fengyun-1c-debris", "lat": 58.069526895113555, "lon": -116.65977636657684, "alt_km": 918.899496108359, "timestamp": "2025-12-14T07:33:19.765047+00:00", "meta": {"OBJECT_NAME": "FENGYUN 1C DEB", "OBJECT_ID": "1999-025DJB", "EPOCH": "2025-12-13T10:29:17.351232", "MEAN_MOTION": 13.99533166, "ECCENTRICITY": 0.01846825, "INCLINATION": 99.152, "RA_OF_ASC_NODE": 47.4707, "ARG_OF_PERICENTER": 19.5198, "MEAN_ANOMALY": 358.8297, "EPHEMERIS_TYPE": 0, "CLASSIFICATION_TYPE": "U", "NORAD_CAT_ID": 33738, "ELEMENT_SET_NO": 999, "REV_AT_EPOCH": 89246, "BSTAR": 0.00072007119, "MEAN_MOTION_DOT": 1.172e-05, "MEAN_MOTION_DDOT": 0}, "tle": {"line1": "1 33738U 99025DJB 25347.43700638  .00001172  00000+0  72007-3 0  9990", "line2": "2 33738  99.1520  47.4707 0184682  19.5198 358.8297 13.99533166892460"}}, "geometry": {"type": "Point", "coordinates": [-116.65977636657684, 58.069526895113555]}}, {"type": "Feature", "properties": {"norad_id": 33740, "name": "FENGYUN 1C DEB", "group": "fengyun-1c-debris", "lat": -48.54427780163457, "lon": 171.2103267266712, "alt_km": 858.5975675963518, "timestamp": "2025-12-14T07:33:19.765057+00:00", "meta": {"OBJECT_NAME": "FENGYUN 1C DEB", "OBJECT_ID": "1999-025DJD", "EPOCH": "2025-12-13T06:40:10.991136", "MEAN_MOTION": 14.12323086, "ECCENTRICITY": 0.0002062, "INCLINATION": 98.6874, "RA_OF_ASC_NODE": 0.1725, "ARG_OF_PERICENTER": 128.1164, "MEAN_ANOMALY": 232.0195, "EPHEMERIS_TYPE": 0, "CLASSIFICATION_TYPE": "U", "NORAD_CAT_ID": 33740, "ELEMENT_SET_NO": 999, "REV_AT_EPOCH": 90154, "BSTAR": 0.00021078194, "MEAN_MOTION_DOT": 3.46e-06, "MEAN_MOTION_DDOT": 0}, "tle": {"line1": "1 33740U 99025DJD 25347.27790499  .00000346  00000+0  21078-3 0  9993", "line2": "2 33740  98.6874   0.1725 0002062 128.1164 232.0195 14.12323086901540"}}, "geometry": {"type": "Point", "coordinates": [171.2103267266712, -48.54427780163457]}}]}